STARLINK-37587          
1 69837U 26154U   26199.91668981 -.00058573  00000+0 -29489-3 0  9990
2 69837  53.1581 274.1422 0001105  92.1854 298.3554 15.80897143  3247
STARLINK-37590          
1 69838U 26154V   26199.91668981 -.00041875  00000+0 -20949-3 0  9990
2 69838  53.1580 274.1336 0000971  84.2442 310.5680 15.80889083  3102
STARLINK-37589          
1 69839U 26154W   26199.91668981 -.00066763  00000+0 -33691-3 0  9992
2 69839  53.1580 274.1246 0001122  95.1040 303.9794 15.80899491  3248
STARLINK-37487          
1 69840U 26154X   26199.91668981 -.00040585  00000+0 -20295-3 0  9994
2 69840  53.1584 273.6428 0001163  71.8544 198.9023 15.80882834  3245
STARLINK-37433          
1 69841U 26154Y   26199.91668981 -.00020644  00000+0 -10116-3 0  9990
2 69841  53.1593 273.6441 0000894  37.4398 232.6010 15.80904226  3372
STARLINK-37588          
1 69842U 26154Z   26199.91668981 -.00037674  00000+0 -18814-3 0  9995
2 69842  53.1581 273.6081 0001108  57.1218 230.1907 15.80876046  3274
STARLINK-37579          
1 69843U 26154AA  26199.91668981 -.00080584  00000+0 -40787-3 0  9998
2 69843  53.1587 273.6112 0000579  71.5921 214.1174 15.80909960  3278
STARLINK-37584          
1 69844U 26154AB  26199.91668981 -.00091141  00000+0 -46168-3 0  9999
2 69844  53.1590 273.6038 0001589  45.7836 243.7066 15.80937217  3274
STARLINK-37606          
1 69845U 26154AC  26199.91668981 -.00017581  00000+0 -85651-4 0  9997
2 69845  53.1586 273.5920 0001125 111.6294 183.0306 15.80888240  3270
STARLINK-37603          
1 69846U 26154AD  26199.91668981 -.00067278  00000+0 -33899-3 0  9992
2 69846  53.1591 273.5851 0001328  54.8999 243.0709 15.80934576  3273
STARLINK-37595          
1 69847U 26154AE  26199.91668981 -.00067462  00000+0 -34036-3 0  9992
2 69847  53.1589 273.5735 0001008  80.5914 222.6322 15.80908959  3270
QIANFAN-219             
1 69848U 26155A   26199.59107009  .00000052  00000+0  15688-4 0  9990
2 69848  89.0064  60.5597 0030833 211.5196 148.4151 14.26455418  1867
QIANFAN-220             
1 69849U 26155B   26199.89523995  .00000047  00000+0  15891-4 0  9990
2 69849  89.0064  60.5311 0029701 209.7807 150.1693 14.17597627  1907
QIANFAN-221             
1 69850U 26155C   26199.87063875  .00000176  00000+0  66474-4 0  9992
2 69850  89.0064  60.5275 0030678 210.9891 148.9494 14.26647912  1907
QIANFAN-222             
1 69851U 26155D   26198.83195585  .00000049  00000+0  15570-4 0  9992
2 69851  89.0065  60.6495 0029555 214.6997 145.2267 14.22185075  1758
QIANFAN-223             
1 69852U 26155E   26199.88514674  .00000166  00000+0  68069-4 0  9994
2 69852  89.0065  60.5299 0029415 210.4401 149.5084 14.22140414  1908
QIANFAN-224             
1 69853U 26155F   26198.89566005 -.01809487  00000+0 -93450+0 0  9993
2 69853  89.0052  60.6399 0031114 224.5648 135.3039 14.18497223  1760
QIANFAN-225             
1 69854U 26155G   26199.88029697  .00000165  00000+0  67217-4 0  9995
2 69854  89.0064  60.5288 0029325 211.4533 148.4906 14.22451146  1902
QIANFAN-226             
1 69855U 26155H   26199.87886768  .00000172  00000+0  70296-4 0  9994
2 69855  89.0063  60.5287 0030353 211.0694 148.8704 14.22559182  1907
QIANFAN-227             
1 69856U 26155J   26198.95937070 -.02008388  00000+0 -10086+1 0  9994
2 69856  89.0062  60.6317 0030842 215.0610 144.8550 14.20399872  1773
QIANFAN-228             
1 69857U 26155K   26198.95854703 -.01902873  00000+0 -95328+0 0  9998
2 69857  89.0055  60.6322 0031877 218.7208 141.1698 14.20295178  1771
QIANFAN-229             
1 69858U 26155L   26199.87010617  .00000161  00000+0  60230-4 0  9994
2 69858  89.0064  60.5275 0030818 210.5909 149.3489 14.26690212  1907
QIANFAN-230             
1 69859U 26155M   26198.90384435 -.01931944  00000+0 -10463+1 0  9994
2 69859  89.0054  60.6411 0032961 222.0372 137.8286 14.16167691  1763
QIANFAN-231             
1 69860U 26155N   26199.87401746  .00000188  00000+0  72237-4 0  9993
2 69860  89.0065  60.5282 0030891 209.9520 149.9907 14.26097109  1908
QIANFAN-232             
1 69861U 26155P   26199.02832197  .00000200  00000+0  76523-4 0  9996
2 69861  89.0063  60.6233 0030593 214.1355 145.7872 14.26736537  1783
QIANFAN-233             
1 69862U 26155Q   26199.86980932  .00000167  00000+0  62892-4 0  9996
2 69862  89.0064  60.5274 0030640 211.0490 148.8894 14.26752624  1905
QIANFAN-234             
1 69863U 26155R   26199.86974843  .00000183  00000+0  69225-4 0  9996
2 69863  89.0064  60.5275 0030612 211.0878 148.8506 14.26759281  1902
QIANFAN-235             
1 69864U 26155S   26199.86969378  .00000155  00000+0  57660-4 0  9993
2 69864  89.0064  60.5274 0030567 211.1127 148.8259 14.26765121  1904
QIANFAN-236             
1 69865U 26155T   26199.86964644  .00000184  00000+0  69822-4 0  9990
2 69865  89.0064  60.5274 0030537 211.1363 148.8023 14.26770407  1906
QIANFAN-237             
1 69866U 26155U   26199.86956826  .00000173  00000+0  65214-4 0  9993
2 69866  89.0064  60.5274 0030513 211.1674 148.7711 14.26778591  1899
QIANFAN-238             
1 69867U 26155V   26199.86949973  .00000171  00000+0  64384-4 0  9994
2 69867  89.0064  60.5274 0030495 211.2038 148.7347 14.26786059  1909
CZ-8A R/B               
1 69868U 26155W   26199.88032891  .00000199  00000+0  44744-4 0  9997
2 69868  88.9656  60.4466 0106450  90.7210 270.6194 14.48271159  1925
STARLINK-37886          
1 69943U 26157A   26199.91668981 -.00075300  00000+0 -38076-3 0  9990
2 69943  53.1592 277.1810 0001007  73.5274 336.4221 15.80903184  2754
STARLINK-37937          
1 69944U 26157B   26199.91668981 -.00025877  00000+0 -12789-3 0  9998
2 69944  53.1621 277.1623 0001242  65.5197 353.5094 15.80884083  2750
STARLINK-37903          
1 69945U 26157C   26199.91668981 -.00059945  00000+0 -30199-3 0  9997
2 69945  53.1592 277.1527 0001045  91.2871 332.2740 15.80893359  2755
STARLINK-37905          
1 69946U 26157D   26199.91668981 -.00064314  00000+0 -32434-3 0  9998
2 69946  53.1619 277.1129 0000482  87.4556 355.3799 15.80900682  2753
STARLINK-37904          
1 69947U 26157E   26199.91668981 -.00232282  00000+0 -11957-2 0  9996
2 69947  53.1617 277.1049 0000646  83.4676   3.2844 15.81044590  2752
STARLINK-37891          
1 69948U 26157F   26199.91668981 -.00091489  00000+0 -46392-3 0  9991
2 69948  53.1592 277.0957 0000750  76.3077  14.7156 15.80919222  2759
STARLINK-37923          
1 69949U 26157G   26199.91668981 -.00084403  00000+0 -42742-3 0  9995
2 69949  53.1597 277.0600 0000764  80.6253  27.5037 15.80916186  2755
STARLINK-37895          
1 69950U 26157H   26199.91668981 -.00090961  00000+0 -46106-3 0  9991
2 69950  53.1597 277.0446 0000950  77.4931  38.0814 15.80925229  2757
STARLINK-37841          
1 69951U 26157J   26199.91668981 -.00087001  00000+0 -44103-3 0  9998
2 69951  53.1595 277.0207 0001168  78.1327  48.8922 15.80904794  2753
STARLINK-37899          
1 69952U 26157K   26199.91668981 -.00052558  00000+0 -26407-3 0  9995
2 69952  53.1596 276.9979 0000554  87.6513  50.5117 15.80897816  2751
STARLINK-37900          
1 69953U 26157L   26199.91668981 -.00041812  00000+0 -20922-3 0  9993
2 69953  53.1598 276.9898 0001355  80.2320  61.7767 15.80882163  2753
STARLINK-37882          
1 69954U 26157M   26199.91668981 -.00067109  00000+0 -33874-3 0  9991
2 69954  53.1597 276.9673 0001244  67.2110  85.6124 15.80895512  2757
STARLINK-37928          
1 69955U 26157N   26199.91668981 -.00062198  00000+0 -31363-3 0  9996
2 69955  53.1597 276.9657 0000958  66.2814  87.2337 15.80888217  2759
STARLINK-37824          
1 69956U 26157P   26199.91668981 -.00004375  00000+0 -18650-4 0  9995
2 69956  53.1596 276.9631 0001419 103.8246  51.0484 15.80850416  2753
STARLINK-37919          
1 69957U 26157Q   26199.91668981 -.00059883  00000+0 -30173-3 0  9993
2 69957  53.1596 276.9611 0000651  74.0774  81.8357 15.80890146  2758
STARLINK-37964          
1 69958U 26157R   26199.91668981  .00031936  00000+0  16496-3 0  9993
2 69958  53.1596 276.9476 0000263  96.6143  65.7193 15.80843819  2751
STARLINK-37907          
1 69959U 26157S   26199.91668981 -.00098371  00000+0 -49950-3 0  9993
2 69959  53.1595 276.9266 0001358  48.6476 123.8127 15.80916952  2752
STARLINK-37901          
1 69960U 26157T   26199.91668981 -.00057929  00000+0 -29171-3 0  9992
2 69960  53.1596 276.9128 0000640  72.1429 106.9470 15.80889698  2754
STARLINK-37910          
1 69961U 26157U   26199.91668981 -.00027809  00000+0 -13784-3 0  9990
2 69961  53.1595 276.8941 0000824  48.9302 139.2328 15.80867494  2752
STARLINK-37925          
1 69962U 26157V   26199.91668981  .00014470  00000+0  76835-4 0  9996
2 69962  53.1594 276.8901 0000866  26.7712 163.3708 15.80841178  2754
STARLINK-37931          
1 69963U 26157W   26199.91668981  .00031277  00000+0  16174-3 0  9990
2 69963  53.1596 276.8831 0000341  85.2962 108.1054 15.80830886  2759
STARLINK-37914          
1 69964U 26157X   26199.91668981 -.00254038  00000+0 -13134-2 0  9997
2 69964  53.1593 276.8482 0001081  80.3411 129.5585 15.81008476  2755
STARLINK-37840          
1 69965U 26157Y   26199.91668981 -.02296070  00000+0 -12184-1 0  9995
2 69965  53.1588 276.8161 0000791  70.4373 154.9975 15.82860094  2756
STARLINK-37894          
1 69966U 26157Z   26199.91668981 -.00566833  00000+0 -30100-2 0  9990
2 69966  53.1588 276.8277 0001342  64.3264 155.5184 15.81232478  2756
STARLINK-37875          
1 69967U 26157AA  26199.91668981 -.01195297  00000+0 -65362-2 0  9992
2 69967  53.1590 276.8072 0001076  54.1615 175.5289 15.81739144  2754
STARLINK-36218          
1 69968U 26157AB  26199.91668981 -.02266760  00000+0 -11981-1 0  9995
2 69968  53.1587 276.7817 0001244  73.2220 168.5530 15.82896232  2404
STARLINK-37921          
1 69969U 26157AC  26199.91668981 -.02180025  00000+0 -11486-1 0  9995
2 69969  53.1585 276.7462 0001172  80.9464 177.9512 15.83394552  2755
STARLINK-37896          
1 69970U 26157AD  26199.91668981 -.02273614  00000+0 -11758-1 0  9996
2 69970  53.1586 276.7437 0001236 112.3001 147.7803 15.83361385  2754
